{"type": "FeatureCollection", "features": [ {"type": "Feature", "properties": {"norad_id": 66603, "name": "STARLINK-36048", "group": "last-30-days", "lat": 40.25864265986137, "lon": -96.57019341320525, "alt_km": 438.5750488491394, "timestamp": "2025-12-20T07:33:49.512250+00:00", "meta": {"OBJECT_NAME": "STARLINK-36048", "OBJECT_ID": "2025-270R", "EPOCH": "2025-12-19T22:00:01.999584", "MEAN_MOTION": 15.40661481, "ECCENTRICITY": 0.00014953, "INCLINATION": 42.9995, "RA_OF_ASC_NODE": 151.0618, "ARG_OF_PERICENTER": 277.3988, "MEAN_ANOMALY": 138.4302, "EPHEMERIS_TYPE": 0, "CLASSIFICATION_TYPE": "U", "NORAD_CAT_ID": 66603, "ELEMENT_SET_NO": 999, "REV_AT_EPOCH": 545, "BSTAR": 0.0018502998, "MEAN_MOTION_DOT": 0.00077679, "MEAN_MOTION_DDOT": 0}, "tle": {"line1": "1 66603U 25270R   25353.91668981  .00077679  00000+0  18503-2 0  9997", "line2": "2 66603  42.9995 151.0618 0001495 277.3988 138.4302 15.40661481  5457"}}, "geometry": {"type": "Point", "coordinates": [-96.57019341320525, 40.25864265986137]}}, {"type": "Feature", "properties": {"norad_id": 66604, "name": "STARLINK-35977", "group": "last-30-days", "lat": 29.652586510683754, "lon": -68.95241402631272, "alt_km": 440.29961752280724, "timestamp": "2025-12-20T07:33:49.512260+00:00", "meta": {"OBJECT_NAME": "STARLINK-35977", "OBJECT_ID": "2025-270S", "EPOCH": "2025-12-19T22:00:01.999584", "MEAN_MOTION": 15.40657464, "ECCENTRICITY": 0.0001909, "INCLINATION": 42.9998, "RA_OF_ASC_NODE": 151.0011, "ARG_OF_PERICENTER": 273.4429, "MEAN_ANOMALY": 167.2736, "EPHEMERIS_TYPE": 0, "CLASSIFICATION_TYPE": "U", "NORAD_CAT_ID": 66604, "ELEMENT_SET_NO": 999, "REV_AT_EPOCH": 555, "BSTAR": 0.0018983375, "MEAN_MOTION_DOT": 0.00079716, "MEAN_MOTION_DDOT": 0}, "tle": {"line1": "1 66604U 25270S   25353.91668981  .00079716  00000+0  18983-2 0  9994", "line2": "2 66604  42.9998 151.0011 0001909 273.4429 167.2736 15.40657464  5553"}}, "geometry": {"type": "Point", "coordinates": [-68.95241402631272, 29.652586510683754]}}, {"type": "Feature", "properties": {"norad_id": 66605, "name": "STARLINK-36052", "group": "last-30-days", "lat": -18.730433109155094, "lon": -10.138910560265817, "alt_km": 445.5092317480976, "timestamp": "2025-12-20T07:33:49.512270+00:00", "meta": {"OBJECT_NAME": "STARLINK-36052", "OBJECT_ID": "2025-270T", "EPOCH": "2025-12-19T22:00:01.999584", "MEAN_MOTION": 15.40654166, "ECCENTRICITY": 0.00022339, "INCLINATION": 42.9998, "RA_OF_ASC_NODE": 150.8196, "ARG_OF_PERICENTER": 283.4751, "MEAN_ANOMALY": 231.8606, "EPHEMERIS_TYPE": 0, "CLASSIFICATION_TYPE": "U", "NORAD_CAT_ID": 66605, "ELEMENT_SET_NO": 999, "REV_AT_EPOCH": 555, "BSTAR": 0.0020336173, "MEAN_MOTION_DOT": 0.00085475, "MEAN_MOTION_DDOT": 0}, "tle": {"line1": "1 66605U 25270T   25353.91668981  .00085475  00000+0  20336-2 0  9999", "line2": "2 66605  42.9998 150.8196 0002233 283.4751 231.8606 15.40654166  5555"}}, "geometry": {"type": "Point", "coordinates": [-10.138910560265817, -18.730433109155094]}}, {"type": "Feature", "properties": {"norad_id": 66606, "name": "STARLINK-36063", "group": "last-30-days", "lat": -41.937508190436084, "lon": 73.72311025433487, "alt_km": 416.6707158140298, "timestamp": "2025-12-20T07:33:49.512282+00:00", "meta": {"OBJECT_NAME": "STARLINK-36063", "OBJECT_ID": "2025-270U", "EPOCH": "2025-12-19T11:48:20.511648", "MEAN_MOTION": 15.50662232, "ECCENTRICITY": 0.0001816, "INCLINATION": 42.9987, "RA_OF_ASC_NODE": 153.1595, "ARG_OF_PERICENTER": 282.0515, "MEAN_ANOMALY": 78.0141, "EPHEMERIS_TYPE": 0, "CLASSIFICATION_TYPE": "U", "NORAD_CAT_ID": 66606, "ELEMENT_SET_NO": 999, "REV_AT_EPOCH": 539, "BSTAR": 0.00079676, "MEAN_MOTION_DOT": 0.0004682, "MEAN_MOTION_DDOT": 0}, "tle": {"line1": "1 66606U 25270U   25353.49190407  .00046820  00000+0  79676-3 0  9999", "line2": "2 66606  42.9987 153.1595 0001816 282.0515  78.0141 15.50662232  5393"}}, "geometry": {"type": "Point", "coordinates": [73.72311025433487, -41.937508190436084]}}, {"type": "Feature", "properties": {"norad_id": 66607, "name": "STARLINK-35993", "group": "last-30-days", "lat": -26.31698393420386, "lon": 0.5513728239301459, "alt_km": 445.8976085483555, "timestamp": "2025-12-20T07:33:49.512293+00:00", "meta": {"OBJECT_NAME": "STARLINK-35993", "OBJECT_ID": "2025-270V", "EPOCH": "2025-12-19T22:00:01.999584", "MEAN_MOTION": 15.40646095, "ECCENTRICITY": 0.0001787, "INCLINATION": 42.9996, "RA_OF_ASC_NODE": 150.7901, "ARG_OF_PERICENTER": 280.6548, "MEAN_ANOMALY": 247.1575, "EPHEMERIS_TYPE": 0, "CLASSIFICATION_TYPE": "U", "NORAD_CAT_ID": 66607, "ELEMENT_SET_NO": 999, "REV_AT_EPOCH": 545, "BSTAR": 0.0021172683, "MEAN_MOTION_DOT": 0.00089019, "MEAN_MOTION_DDOT": 0}, "tle": {"line1": "1 66607U 25270V   25353.91668981  .00089019  00000+0  21173-2 0  9999", "line2": "2 66607  42.9996 150.7901 0001787 280.6548 247.1575 15.40646095  5450"}}, "geometry": {"type": "Point", "coordinates": [0.5513728239301459, -26.31698393420386]}}, {"type": "Feature", "properties": {"norad_id": 66608, "name": "STARLINK-36036", "group": "last-30-days", "lat": -41.61497757872358, "lon": 75.91447720534643, "alt_km": 416.9393691372243, "timestamp": "2025-12-20T07:33:49.512303+00:00", "meta": {"OBJECT_NAME": "STARLINK-36036", "OBJECT_ID": "2025-270W", "EPOCH": "2025-12-19T11:47:53.026080", "MEAN_MOTION": 15.50612484, "ECCENTRICITY": 0.0001538, "INCLINATION": 42.999, "RA_OF_ASC_NODE": 153.1562, "ARG_OF_PERICENTER": 266.4602, "MEAN_ANOMALY": 93.6082, "EPHEMERIS_TYPE": 0, "CLASSIFICATION_TYPE": "U", "NORAD_CAT_ID": 66608, "ELEMENT_SET_NO": 999, "REV_AT_EPOCH": 523, "BSTAR": 0.0010303, "MEAN_MOTION_DOT": 0.00060643, "MEAN_MOTION_DDOT": 0}, "tle": {"line1": "1 66608U 25270W   25353.49158595  .00060643  00000+0  10303-2 0  9993", "line2": "2 66608  42.9990 153.1562 0001538 266.4602  93.6082 15.50612484  5231"}}, "geometry": {"type": "Point", "coordinates": [75.91447720534643, -41.61497757872358]}}, {"type": "Feature", "properties": {"norad_id": 66609, "name": "STARLINK-36034", "group": "last-30-days", "lat": -41.13713272789911, "lon": 78.70804176142217, "alt_km": 416.77329060383, "timestamp": "2025-12-20T07:33:49.512314+00:00", "meta": {"OBJECT_NAME": "STARLINK-36034", "OBJECT_ID": "2025-270X", "EPOCH": "2025-12-18T20:19:48.622656", "MEAN_MOTION": 15.50608281, "ECCENTRICITY": 0.00016988, "INCLINATION": 42.9989, "RA_OF_ASC_NODE": 156.9208, "ARG_OF_PERICENTER": 264.7399, "MEAN_ANOMALY": 95.3267, "EPHEMERIS_TYPE": 0, "CLASSIFICATION_TYPE": "U", "NORAD_CAT_ID": 66609, "ELEMENT_SET_NO": 999, "REV_AT_EPOCH": 513, "BSTAR": 0.00068333644, "MEAN_MOTION_DOT": 0.00039994, "MEAN_MOTION_DDOT": 0}, "tle": {"line1": "1 66609U 25270X   25352.84709054  .00039994  00000+0  68334-3 0  9997", "line2": "2 66609  42.9989 156.9208 0001698 264.7399  95.3267 15.50608281  5132"}}, "geometry": {"type": "Point", "coordinates": [78.70804176142217, -41.13713272789911]}}, {"type": "Feature", "properties": {"norad_id": 66610, "name": "STARLINK-35680", "group": "last-30-days", "lat": -38.32470964557821, "lon": 26.45693220733432, "alt_km": 446.8238559393076, "timestamp": "2025-12-20T07:33:49.512324+00:00", "meta": {"OBJECT_NAME": "STARLINK-35680", "OBJECT_ID": "2025-270Y", "EPOCH": "2025-12-19T22:00:01.999584", "MEAN_MOTION": 15.4225383, "ECCENTRICITY": 0.00020275, "INCLINATION": 42.9993, "RA_OF_ASC_NODE": 150.7309, "ARG_OF_PERICENTER": 290.849, "MEAN_ANOMALY": 260.9304, "EPHEMERIS_TYPE": 0, "CLASSIFICATION_TYPE": "U", "NORAD_CAT_ID": 66610, "ELEMENT_SET_NO": 999, "REV_AT_EPOCH": 566, "BSTAR": -0.052987995, "MEAN_MOTION_DOT": -0.02068779, "MEAN_MOTION_DDOT": 0}, "tle": {"line1": "1 66610U 25270Y   25353.91668981 -.02068779  00000+0 -52988-1 0  9994", "line2": "2 66610  42.9993 150.7309 0002027 290.8490 260.9304 15.42253830  5669"}}, "geometry": {"type": "Point", "coordinates": [26.45693220733432, -38.32470964557821]}}, {"type": "Feature", "properties": {"norad_id": 66611, "name": "STARLINK-35583", "group": "last-30-days", "lat": -42.930516144867894, "lon": 55.01967577283902, "alt_km": 438.5928178821532, "timestamp": "2025-12-20T07:33:49.512334+00:00", "meta": {"OBJECT_NAME": "STARLINK-35583", "OBJECT_ID": "2025-270Z", "EPOCH": "2025-12-19T22:00:01.999584", "MEAN_MOTION": 15.45117912, "ECCENTRICITY": 0.0001068, "INCLINATION": 43, "RA_OF_ASC_NODE": 150.6888, "ARG_OF_PERICENTER": 280.3676, "MEAN_ANOMALY": 289.3661, "EPHEMERIS_TYPE": 0, "CLASSIFICATION_TYPE": "U", "NORAD_CAT_ID": 66611, "ELEMENT_SET_NO": 999, "REV_AT_EPOCH": 566, "BSTAR": -0.04695061, "MEAN_MOTION_DOT": -0.0202641, "MEAN_MOTION_DDOT": 0}, "tle": {"line1": "1 66611U 25270Z   25353.91668981 -.02026410  00000+0 -46951-1 0  9994", "line2": "2 66611  43.0000 150.6888 0001068 280.3676 289.3661 15.45117912  5660"}}, "geometry": {"type": "Point", "coordinates": [55.01967577283902, -42.930516144867894]}}, {"type": "Feature", "properties": {"norad_id": 66612, "name": "STARLINK-36039", "group": "last-30-days", "lat": 14.644687841262806, "lon": 165.2559946402561, "alt_km": 441.4756940471252, "timestamp": "2025-12-20T07:33:49.512359+00:00", "meta": {"OBJECT_NAME": "STARLINK-36039", "OBJECT_ID": "2025-270AA", "EPOCH": "2025-12-19T11:14:40.026048", "MEAN_MOTION": 15.40749078, "ECCENTRICITY": 0.0001559, "INCLINATION": 42.9988, "RA_OF_ASC_NODE": 153.8506, "ARG_OF_PERICENTER": 277.1774, "MEAN_ANOMALY": 82.8905, "EPHEMERIS_TYPE": 0, "CLASSIFICATION_TYPE": "U", "NORAD_CAT_ID": 66612, "ELEMENT_SET_NO": 999, "REV_AT_EPOCH": 538, "BSTAR": 0.0012709, "MEAN_MOTION_DOT": 0.00053244, "MEAN_MOTION_DDOT": 0}, "tle": {"line1": "1 66612U 25270AA  25353.46851882  .00053244  00000+0  12709-2 0  9995", "line2": "2 66612  42.9988 153.8506 0001559 277.1774  82.8905 15.40749078  5389"}}, "geometry": {"type": "Point", "coordinates": [165.2559946402561, 14.644687841262806]}}]}